NORAD_CAT_ID,OBJECT_NAME,OBJECT_TYPE,EPOCH,MEAN_MOTION,ECCENTRICITY,INCLINATION,RA_OF_ASC_NODE,ARG_OF_PERICENTER,MEAN_ANOMALY,BSTAR,MEAN_MOTION_DOT,MEAN_MOTION_DDOT,TLE_LINE0,TLE_LINE1,TLE_LINE2,SEMIMAJOR_AXIS,PERIOD,APOGEE,PERIGEE,DECAYED
52093.0,STARLINK-3673,PAYLOAD,2023-05-28 19:35:45,15.08846612,7.66e-05,53.2176,329.5629,87.8681,272.2399,0.0001398,1.938e-05,0.0,0 STARLINK-3673,1 52093U 22029F   23148.81650350  .00001938  00000-0  13980-3 0  9995,2 52093  53.2176 329.5629 0000766  87.8681 272.2399 15.08846612 67297,6917.86,95.437,540.255,539.195,0.0
52093.0,STARLINK-3673,PAYLOAD,2023-05-29 17:51:10,15.08834518,8.19e-05,53.2175,325.4,77.5105,282.5979,7.8245e-05,9.58e-06,0.0,0 STARLINK-3673,1 52093U 22029F   23149.74387394  .00000958  00000-0  78245-4 0  9990,2 52093  53.2175 325.4000 0000819  77.5105 282.5979 15.08834518 67436,6917.897,95.438,540.329,539.196,0.0
52093.0,STARLINK-3673,PAYLOAD,2023-05-29 19:26:33,15.08839882,8.51e-05,53.2178,325.1021,75.592,284.5167,7.0254e-05,8.31e-06,0.0,0 STARLINK-3673,1 52093U 22029F   23149.81011059  .00000831  00000-0  70254-4 0  9992,2 52093  53.2178 325.1021 0000851  75.5920 284.5167 15.08839882 67449,6917.881,95.438,540.334,539.157,0.0
52093.0,STARLINK-3673,PAYLOAD,2023-05-30 04:58:52,15.08840908,8.64e-05,53.2179,323.3185,73.0695,287.0392,7.2953e-05,8.74e-06,0.0,0 STARLINK-3673,1 52093U 22029F   23150.20754978  .00000874  00000-0  72953-4 0  9996,2 52093  53.2179 323.3185 0000864  73.0695 287.0392 15.08840908 67503,6917.878,95.437,540.34,539.145,0.0
52093.0,STARLINK-3673,PAYLOAD,2023-05-30 16:06:34,15.0884396,8.23e-05,53.2184,321.2365,71.4035,288.7046,8.2808e-05,1.031e-05,0.0,0 STARLINK-3673,1 52093U 22029F   23150.67122710  .00001031  00000-0  82808-4 0  9996,2 52093  53.2184 321.2365 0000823  71.4035 288.7046 15.08843960 67573,6917.868,95.437,540.303,539.164,0.0
52093.0,STARLINK-3673,PAYLOAD,2023-05-30 20:52:43,15.08828379,9.27e-05,53.218,320.3449,76.662,283.4475,0.00039656,6.027e-05,0.0,0 STARLINK-3673,1 52093U 22029F   23150.86994906  .00006027  00000-0  39656-3 0  9993,2 52093  53.2180 320.3449 0000927  76.6620 283.4475 15.08828379 67603,6917.916,95.438,540.422,539.14,0.0
52093.0,STARLINK-3673,PAYLOAD,2023-05-31 14:21:58,15.08832113,0.0001061,53.2172,317.0739,70.2578,289.8529,0.00015853,2.236e-05,0.0,0 STARLINK-3673,1 52093U 22029F   23151.59859108  .00002236  00000-0  15853-3 0  9999,2 52093  53.2172 317.0739 0001061  70.2578 289.8529 15.08832113 67714,6917.904,95.438,540.503,539.036,0.0
52093.0,STARLINK-3673,PAYLOAD,2023-05-31 17:32:44,15.08842959,9.6e-05,53.2174,316.4776,78.8465,281.2635,5.9142e-05,6.54e-06,0.0,0 STARLINK-3673,1 52093U 22029F   23151.73106711  .00000654  00000-0  59142-4 0  9992,2 52093  53.2174 316.4776 0000960  78.8465 281.2635 15.08842959 67731,6917.871,95.437,540.4,539.072,0.0
52093.0,STARLINK-3673,PAYLOAD,2023-06-02 10:52:46,15.08834025,8.22e-05,53.2174,308.7481,76.6742,283.4342,3.2945e-05,2.37e-06,0.0,0 STARLINK-3673,1 52093U 22029F   23153.45331415  .00000237  00000-0  32945-4 0  9993,2 52093  53.2174 308.7481 0000822  76.6742 283.4342 15.08834025 67991,6917.899,95.438,540.332,539.195,0.0
52093.0,STARLINK-3673,PAYLOAD,2023-06-02 14:03:32,15.08836538,8.49e-05,53.2172,308.1541,73.4703,286.6383,5.8196e-05,6.39e-06,0.0,0 STARLINK-3673,1 52093U 22029F   23153.58579273  .00000639  00000-0  58196-4 0  9995,2 52093  53.2172 308.1541 0000849  73.4703 286.6383 15.08836538 68016,6917.891,95.438,540.343,539.169,0.0
52093.0,STARLINK-3673,PAYLOAD,2023-06-02 17:14:18,15.0883972,8.94e-05,53.2171,307.5586,83.0093,277.1001,7.8326e-05,9.59e-06,0.0,0 STARLINK-3673,1 52093U 22029F   23153.71827012  .00000959  00000-0  78326-4 0  9999,2 52093  53.2171 307.5586 0000894  83.0093 277.1001 15.08839720 68036,6917.881,95.438,540.365,539.128,0.0
52093.0,STARLINK-3673,PAYLOAD,2023-06-03 02:46:37,15.08842386,8.38e-05,53.217,305.7745,76.7739,283.3347,1.5612e-05,-3.9e-07,0.0,0 STARLINK-3673,1 52093U 22029F   23154.11570987 -.00000039  00000-0  15612-4 0  9999,2 52093  53.2170 305.7745 0000838  76.7739 283.3347 15.08842386 68096,6917.873,95.437,540.318,539.158,0.0
52093.0,STARLINK-3673,PAYLOAD,2023-06-03 09:08:10,15.08834052,8.86e-05,53.2161,304.5869,94.1092,266.0001,5.1573e-05,5.33e-06,0.0,0 STARLINK-3673,1 52093U 22029F   23154.38067516  .00000533  00000-0  51573-4 0  9991,2 52093  53.2161 304.5869 0000886  94.1092 266.0001 15.08834052 68130,6917.899,95.438,540.376,539.151,0.0
52093.0,STARLINK-3673,PAYLOAD,2023-06-03 13:54:20,15.08830386,8.72e-05,53.2168,303.6939,86.8206,273.2886,-6.7389e-06,-3.95e-06,0.0,0 STARLINK-3673,1 52093U 22029F   23154.57940009 -.00000395  00000-0 -67389-5 0  9990,2 52093  53.2168 303.6939 0000872  86.8206 273.2886 15.08830386 68165,6917.91,95.438,540.378,539.172,0.0
52093.0,STARLINK-3673,PAYLOAD,2023-06-03 17:05:06,15.08833675,8.2e-05,53.2167,303.0994,94.0095,266.0991,1.1082e-05,-1.11e-06,0.0,0 STARLINK-3673,1 52093U 22029F   23154.71187778 -.00000111  00000-0  11082-4 0  9995,2 52093  53.2167 303.0994 0000820  94.0095 266.0991 15.08833675 68182,6917.9,95.438,540.332,539.197,0.0
52093.0,STARLINK-3673,PAYLOAD,2023-06-04 13:45:06,15.08839231,8.69e-05,53.2166,299.2335,97.1091,263.0,6.6032e-05,7.63e-06,0.0,0 STARLINK-3673,1 52093U 22029F   23155.57299478  .00000763  00000-0  66032-4 0  9998,2 52093  53.2166 299.2335 0000869  97.1091 263.0000 15.08839231 68316,6917.883,95.438,540.349,539.147,0.0
52093.0,STARLINK-3673,PAYLOAD,2023-06-04 18:31:15,15.08844102,9.05e-05,53.2167,298.3413,96.5975,263.512,0.00013196,1.813e-05,0.0,0 STARLINK-3673,1 52093U 22029F   23155.77170983  .00001813  00000-0  13196-3 0  9998,2 52093  53.2167 298.3413 0000905  96.5975 263.5120 15.08844102 68343,6917.868,95.437,540.359,539.107,0.0
52093.0,STARLINK-3673,PAYLOAD,2023-06-05 02:28:11,15.08839038,9.55e-05,53.2176,296.8535,91.6106,268.4996,4.407e-05,4.14e-06,0.0,0 STARLINK-3673,1 52093U 22029F   23156.10291539  .00000414  00000-0  44070-4 0  9999,2 52093  53.2176 296.8535 0000955  91.6106 268.4996 15.08839038 68390,6917.883,95.438,540.409,539.088,0.0
52093.0,STARLINK-3673,PAYLOAD,2023-06-05 13:35:53,15.08839782,0.0001159,53.2181,294.7712,86.8868,273.2257,0.00013749,1.901e-05,0.0,0 STARLINK-3673,1 52093U 22029F   23156.56659380  .00001901  00000-0  13749-3 0  9991,2 52093  53.2181 294.7712 0001159  86.8868 273.2257 15.08839782 68466,6917.881,95.438,540.548,538.944,0.0
52093.0,STARLINK-3673,PAYLOAD,2023-06-05 18:22:02,15.08844153,0.0001014,53.2177,293.8786,89.3307,270.7802,0.00012508,1.704e-05,0.0,0 STARLINK-3673,1 52093U 22029F   23156.76531099  .00001704  00000-0  12508-3 0  9992,2 52093  53.2177 293.8786 0001014  89.3307 270.7802 15.08844153 68497,6917.868,95.437,540.434,539.031,0.0
52093.0,STARLINK-3673,PAYLOAD,2023-06-06 10:15:55,15.0883632,0.0001092,53.2172,290.906,88.566,271.5458,1.0305e-05,-1.24e-06,0.0,0 STARLINK-3673,1 52093U 22029F   23157.42772020 -.00000124  00000-0  10305-4 0  9997,2 52093  53.2172 290.9060 0001092  88.5660 271.5458 15.08836320 68598,6917.892,95.438,540.512,539.001,0.0
52093.0,STARLINK-3673,PAYLOAD,2023-06-06 11:51:18,15.08835643,0.0001068,53.2171,290.6084,89.3984,270.7131,4.2832e-06,-2.2e-06,0.0,0 STARLINK-3673,1 52093U 22029F   23157.49396078 -.00000220  00000-0  42832-5 0  9997,2 52093  53.2171 290.6084 0001068  89.3984 270.7131 15.08835643 68609,6917.894,95.438,540.498,539.02,0.0
52093.0,STARLINK-3673,PAYLOAD,2023-06-06 16:37:27,15.08845709,9.28e-05,53.217,289.7156,93.3607,266.7492,1.8919e-06,-2.58e-06,0.0,0 STARLINK-3673,1 52093U 22029F   23157.69267409 -.00000258  00000-0  18919-5 0  9994,2 52093  53.2170 289.7156 0000928  93.3607 266.7492 15.08845709 68630,6917.863,95.437,540.37,539.086,0.0
52093.0,STARLINK-3673,PAYLOAD,2023-06-07 08:31:18,15.08835117,9.14e-05,53.2174,286.7427,90.3341,269.7755,3.0404e-05,1.96e-06,0.0,0 STARLINK-3673,1 52093U 22029F   23158.35508029  .00000196  00000-0  30404-4 0  9996,2 52093  53.2174 286.7427 0000914  90.3341 269.7755 15.08835117 68737,6917.895,95.438,540.393,539.128,0.0
52093.0,STARLINK-3673,PAYLOAD,2023-06-07 19:39:00,15.08837088,9.24e-05,53.2171,284.6637,44.9175,315.1892,0.00018066,2.588e-05,0.0,0 STARLINK-3673,1 52093U 22029F   23158.81875642  .00002588  00000-0  18066-3 0  9991,2 52093  53.2171 284.6637 0000924  44.9175 315.1892 15.08837088 68800,6917.889,95.438,540.394,539.115,0.0
52093.0,STARLINK-3673,PAYLOAD,2023-06-08 02:00:32,15.08846232,0.0001273,53.2164,283.4763,60.3359,299.776,-2.1386e-05,-6.28e-06,0.0,0 STARLINK-3673,1 52093U 22029F   23159.08371521 -.00000628  00000-0 -21386-4 0  9993,2 52093  53.2164 283.4763 0001273  60.3359 299.7760 15.08846232 68849,6917.861,95.437,540.607,538.846,0.0
52093.0,STARLINK-3673,PAYLOAD,2023-06-08 14:43:38,15.08839984,8.89e-05,53.2171,281.0928,95.6037,264.5056,0.00012252,1.663e-05,0.0,0 STARLINK-3673,1 52093U 22029F   23159.61363517  .00001663  00000-0  12252-3 0  9997,2 52093  53.2171 281.0928 0000889  95.6037 264.5056 15.08839984 68923,6917.88,95.438,540.36,539.13,0.0
52093.0,STARLINK-3673,PAYLOAD,2023-06-09 08:12:52,15.08840482,9.74e-05,53.2172,277.8225,95.5145,264.5958,1.0072e-05,-1.27e-06,0.0,0 STARLINK-3673,1 52093U 22029F   23160.34227843 -.00000127  00000-0  10072-4 0  9994,2 52093  53.2172 277.8225 0000974  95.5145 264.5958 15.08840482 69030,6917.879,95.438,540.418,539.07,0.0
52093.0,STARLINK-3673,PAYLOAD,2023-06-09 14:34:25,15.08843939,0.0001335,53.2166,276.6346,89.5167,270.5978,4.4029e-05,4.13e-06,0.0,0 STARLINK-3673,1 52093U 22029F   23160.60723521  .00000413  00000-0  44029-4 0  9993,2 52093  53.2166 276.6346 0001335  89.5167 270.5978 15.08843939 69076,6917.868,95.437,540.657,538.81,0.0
52093.0,STARLINK-3673,PAYLOAD,2023-06-10 08:03:40,15.08834283,9.18e-05,53.217,273.3623,92.5746,267.5351,2.7834e-05,1.55e-06,0.0,0 STARLINK-3673,1 52093U 22029F   23161.33588282  .00000155  00000-0  27834-4 0  9995,2 52093  53.2170 273.3623 0000918  92.5746 267.5351 15.08834283 69181,6917.898,95.438,540.398,539.128,0.0
